[
    {
        "Altitude(m)": 612513.928737774,
        "Argument of Periapsis(deg)": 0.0,
        "Eccentricity": 0.0,
        "Inclination(deg)": 60.0,
        "Latitude(deg)": -28.135953966785223,
        "Longitude(deg)": -172.08693895944168,
        "Mean Anomaly(deg)": 212.7273,
        "RAAN(deg)": 90.0,
        "Satellite Name": "Test1 409",
        "Satellite Number": 409,
        "Semi-Major Axis(m)": 6980739.136638005,
        "Time(s)": 0
    },
    {
        "Altitude(m)": 612708.2968766472,
        "Argument of Periapsis(deg)": 0.00010418945913296404,
        "Eccentricity": 0.0,
        "Inclination(deg)": 60.0,
        "Latitude(deg)": -28.647693760635807,
        "Longitude(deg)": -171.72970977532742,
        "Mean Anomaly(deg)": 213.34740614546186,
        "RAAN(deg)": 89.99957995086027,
        "Satellite Name": "Test1 409",
        "Satellite Number": 409,
        "Semi-Major Axis(m)": 6980739.136638005,
        "Time(s)": 10
    },
    {
        "Altitude(m)": 612903.4916955244,
        "Argument of Periapsis(deg)": 0.0002083789182659281,
        "Eccentricity": 0.0,
        "Inclination(deg)": 60.0,
        "Latitude(deg)": -29.158193410188233,
        "Longitude(deg)": -171.36861337063482,
        "Mean Anomaly(deg)": 213.96751229092362,
        "RAAN(deg)": 89.99915990172052,
        "Satellite Name": "Test1 409",
        "Satellite Number": 409,
        "Semi-Major Axis(m)": 6980739.136638005,
        "Time(s)": 20
    },
    {
        "Altitude(m)": 613099.4419842353,
        "Argument of Periapsis(deg)": 0.00031256837739889213,
        "Eccentricity": 0.0,
        "Inclination(deg)": 60.0,
        "Latitude(deg)": -29.667415846697164,
        "Longitude(deg)": -171.00353827463516,
        "Mean Anomaly(deg)": 214.58761843638547,
        "RAAN(deg)": 89.99873985258078,
        "Satellite Name": "Test1 409",
        "Satellite Number": 409,
        "Semi-Major Axis(m)": 6980739.136638005,
        "Time(s)": 30
    },
    {
        "Altitude(m)": 613296.0760507697,
        "Argument of Periapsis(deg)": 0.0004167578365318562,
        "Eccentricity": 0.0,
        "Inclination(deg)": 60.0,
        "Latitude(deg)": -30.17532301065678,
        "Longitude(deg)": -170.63437002915205,
        "Mean Anomaly(deg)": 215.20772458184732,
        "RAAN(deg)": 89.99831980344103,
        "Satellite Name": "Test1 409",
        "Satellite Number": 409,
        "Semi-Major Axis(m)": 6980739.136638005,
        "Time(s)": 40
    },
    {
        "Altitude(m)": 613493.3217529539,
        "Argument of Periapsis(deg)": 0.0005209472956648203,
        "Eccentricity": 0.0,
        "Inclination(deg)": 60.0,
        "Latitude(deg)": -30.681875813290468,
        "Longitude(deg)": -170.2609921308726,
        "Mean Anomaly(deg)": 215.82783072730916,
        "RAAN(deg)": 89.9978997543013,
        "Satellite Name": "Test1 409",
        "Satellite Number": 409,
        "Semi-Major Axis(m)": 6980739.136638005,
        "Time(s)": 50
    },
    {
        "Altitude(m)": 613691.1065303984,
        "Argument of Periapsis(deg)": 0.0006251367547977843,
        "Eccentricity": 0.0,
        "Inclination(deg)": 60.0,
        "Latitude(deg)": -31.187034096703712,
        "Longitude(deg)": -169.88328546067072,
        "Mean Anomaly(deg)": 216.447936872771,
        "RAAN(deg)": 89.99747970516154,
        "Satellite Name": "Test1 409",
        "Satellite Number": 409,
        "Semi-Major Axis(m)": 6980739.136638005,
        "Time(s)": 60
    },
    {
        "Altitude(m)": 613889.3574365269,
        "Argument of Periapsis(deg)": 0.0007293262139307483,
        "Eccentricity": 0.0,
        "Inclination(deg)": 60.0,
        "Latitude(deg)": -31.690756592657124,
        "Longitude(deg)": -169.50112771298092,
        "Mean Anomaly(deg)": 217.0680430182328,
        "RAAN(deg)": 89.9970596560218,
        "Satellite Name": "Test1 409",
        "Satellite Number": 409,
        "Semi-Major Axis(m)": 6980739.136638005,
        "Time(s)": 70
    },
    {
        "Altitude(m)": 614088.0011708436,
        "Argument of Periapsis(deg)": 0.0008335156730637124,
        "Eccentricity": 0.0,
        "Inclination(deg)": 60.0,
        "Latitude(deg)": -32.19300087991855,
        "Longitude(deg)": -169.11439433828383,
        "Mean Anomaly(deg)": 217.6881491636947,
        "RAAN(deg)": 89.99663960688206,
        "Satellite Name": "Test1 409",
        "Satellite Number": 409,
        "Semi-Major Axis(m)": 6980739.136638005,
        "Time(s)": 80
    },
    {
        "Altitude(m)": 614286.9641113244,
        "Argument of Periapsis(deg)": 0.0009377051321966765,
        "Eccentricity": 0.0,
        "Inclination(deg)": 60.0,
        "Latitude(deg)": -32.693723340161455,
        "Longitude(deg)": -168.7229579731674,
        "Mean Anomaly(deg)": 218.3082553091565,
        "RAAN(deg)": 89.99621955774232,
        "Satellite Name": "Test1 409",
        "Satellite Number": 409,
        "Semi-Major Axis(m)": 6980739.136638005,
        "Time(s)": 90
    },
    {
        "Altitude(m)": 614486.1723469208,
        "Argument of Periapsis(deg)": 0.0010418945913296407,
        "Eccentricity": 0.0,
        "Inclination(deg)": 60.0,
        "Latitude(deg)": -33.192879112370065,
        "Longitude(deg)": -168.32668787107113,
        "Mean Anomaly(deg)": 218.92836145461834,
        "RAAN(deg)": 89.99579950860257,
        "Satellite Name": "Test1 409",
        "Satellite Number": 409,
        "Semi-Major Axis(m)": 6980739.136638005,
        "Time(s)": 100
    },
    {
        "Altitude(m)": 614685.5517101916,
        "Argument of Periapsis(deg)": 0.0011460840504626045,
        "Eccentricity": 0.0,
        "Inclination(deg)": 60.0,
        "Latitude(deg)": -33.69042204571162,
        "Longitude(deg)": -167.92545084685443,
        "Mean Anomaly(deg)": 219.5484676000801,
        "RAAN(deg)": 89.99537945946282,
        "Satellite Name": "Test1 409",
        "Satellite Number": 409,
        "Semi-Major Axis(m)": 6980739.136638005,
        "Time(s)": 110
    },
    {
        "Altitude(m)": 614885.0278100445,
        "Argument of Periapsis(deg)": 0.0012502735095955685,
        "Eccentricity": 0.0,
        "Inclination(deg)": 60.0,
        "Latitude(deg)": -34.186304650849316,
        "Longitude(deg)": -167.51911070973333,
        "Mean Anomaly(deg)": 220.16857374554195,
        "RAAN(deg)": 89.99495941032309,
        "Satellite Name": "Test1 409",
        "Satellite Number": 409,
        "Semi-Major Axis(m)": 6980739.136638005,
        "Time(s)": 120
    },
    {
        "Altitude(m)": 615084.526064538,
        "Argument of Periapsis(deg)": 0.0013544629687285324,
        "Eccentricity": 0.0,
        "Inclination(deg)": 60.0,
        "Latitude(deg)": -34.68047804965826,
        "Longitude(deg)": -167.10752769778972,
        "Mean Anomaly(deg)": 220.7886798910038,
        "RAAN(deg)": 89.99453936118334,
        "Satellite Name": "Test1 409",
        "Satellite Number": 409,
        "Semi-Major Axis(m)": 6980739.136638005,
        "Time(s)": 130
    },
    {
        "Altitude(m)": 615283.9717337784,
        "Argument of Periapsis(deg)": 0.0014586524278614966,
        "Eccentricity": 0.0,
        "Inclination(deg)": 60.0,
        "Latitude(deg)": -35.17289192331489,
        "Longitude(deg)": -166.69055942728843,
        "Mean Anomaly(deg)": 221.40878603646564,
        "RAAN(deg)": 89.9941193120436,
        "Satellite Name": "Test1 409",
        "Satellite Number": 409,
        "Semi-Major Axis(m)": 6980739.136638005,
        "Time(s)": 140
    },
    {
        "Altitude(m)": 615483.2899528441,
        "Argument of Periapsis(deg)": 0.0015628418869944607,
        "Eccentricity": 0.0,
        "Inclination(deg)": 60.0,
        "Latitude(deg)": -35.66349445873805,
        "Longitude(deg)": -166.26806033145905,
        "Mean Anomaly(deg)": 222.0288921819275,
        "RAAN(deg)": 89.99369926290386,
        "Satellite Name": "Test1 409",
        "Satellite Number": 409,
        "Semi-Major Axis(m)": 6980739.136638005,
        "Time(s)": 150
    },
    {
        "Altitude(m)": 615682.4057647627,
        "Argument of Periapsis(deg)": 0.0016670313461274247,
        "Eccentricity": 0.0,
        "Inclination(deg)": 60.0,
        "Latitude(deg)": -36.15223229335603,
        "Longitude(deg)": -165.83988110206215,
        "Mean Anomaly(deg)": 222.6489983273893,
        "RAAN(deg)": 89.99327921376411,
        "Satellite Name": "Test1 409",
        "Satellite Number": 409,
        "Semi-Major Axis(m)": 6980739.136638005,
        "Time(s)": 160
    },
    {
        "Altitude(m)": 615881.2441534998,
        "Argument of Periapsis(deg)": 0.0017712208052603888,
        "Eccentricity": 0.0,
        "Inclination(deg)": 60.0,
        "Latitude(deg)": -36.63905045817913,
        "Longitude(deg)": -165.40586964710357,
        "Mean Anomaly(deg)": 223.26910447285115,
        "RAAN(deg)": 89.99285916462438,
        "Satellite Name": "Test1 409",
        "Satellite Number": 409,
        "Semi-Major Axis(m)": 6980739.136638005,
        "Time(s)": 170
    },
    {
        "Altitude(m)": 616079.7300769781,
        "Argument of Periapsis(deg)": 0.001875410264393353,
        "Eccentricity": 0.0,
        "Inclination(deg)": 60.0,
        "Latitude(deg)": -37.12389231916968,
        "Longitude(deg)": -164.96587053949236,
        "Mean Anomaly(deg)": 223.88921061831294,
        "RAAN(deg)": 89.99243911548463,
        "Satellite Name": "Test1 409",
        "Satellite Number": 409,
        "Semi-Major Axis(m)": 6980739.136638005,
        "Time(s)": 180
    },
    {
        "Altitude(m)": 616277.7885000522,
        "Argument of Periapsis(deg)": 0.0019795997235263173,
        "Eccentricity": 0.0,
        "Inclination(deg)": 60.0,
        "Latitude(deg)": -37.60669951689968,
        "Longitude(deg)": -164.51972447010866,
        "Mean Anomaly(deg)": 224.5093167637748,
        "RAAN(deg)": 89.9920190663449,
        "Satellite Name": "Test1 409",
        "Satellite Number": 409,
        "Semi-Major Axis(m)": 6980739.136638005,
        "Time(s)": 190
    }
]